GLOBALSTAR M068         
1 32266U 07048D   24318.57185418 -.00000061  00000+0  23731-3 0  9991
2 32266  51.9884 239.5166 0001655  39.2171 131.6337 12.62807950790604
GLOBALSTAR M079         
1 37188U 10054A   24318.64743536 -.00000101  00000+0  14265-4 0  9997
2 37188  52.0044  75.9226 0000948 127.9775 334.8928 12.62267125649239
GLOBALSTAR M074         
1 37189U 10054B   24318.65365846 -.00000104  00000+0 -58808-6 0  9990
2 37189  52.0020  75.2560 0000581 112.1912 260.9502 12.62258947649846
GLOBALSTAR M076         
1 37190U 10054C   24318.78344247 -.00000111  00000+0 -41468-4 0  9998
2 37190  52.0035  75.0171 0000633 140.5205 339.8107 12.62273521649930
GLOBALSTAR M077         
1 37191U 10054D   24318.52886060 -.00000087  00000+0  96323-4 0  9996
2 37191  52.0096  32.5871 0000501 119.0531 344.1994 12.62266850649918
GLOBALSTAR M075         
1 37192U 10054E   24318.62884484 -.00000081  00000+0  12498-3 0  9990
2 37192  51.9928 117.8632 0000830  99.6057 339.4978 12.62269057648622
GLOBALSTAR M073         
1 37193U 10054F   24318.96603958 -.00000098  00000+0  33534-4 0  9996
2 37193  52.0084  30.4915 0000483 134.4993  37.4891 12.62272354650708
GLOBALSTAR M083         
1 37739U 11033A   24318.41070163 -.00000069  00000+0  19382-3 0  9998
2 37739  51.9875 341.2100 0000488 103.1426   4.2085 12.62267895619603
GLOBALSTAR M088         
1 37740U 11033B   24318.55656487 -.00000090  00000+0  79463-4 0  9995
2 37740  51.9732 246.4371 0000785  70.0878 101.1978 12.62264977615451
GLOBALSTAR M091         
1 37741U 11033C   24318.49062303 -.00000066  00000+0  21312-3 0  9999
2 37741  51.9987 209.8102 0001146  83.5341  86.4419 12.62270557615945
GLOBALSTAR M085         
1 37742U 11033D   24318.85901926 -.00000063  00000+0  22790-3 0  9991
2 37742  51.9841 159.9155 0001256  94.7646  11.3302 12.62269368616501
GLOBALSTAR M081         
1 37743U 11033E   24318.88469194 -.00000057  00000+0  26054-3 0  9991
2 37743  51.9930 162.4914 0001105 105.5298 357.1671 12.62263704616654
GLOBALSTAR M089         
1 37744U 11033F   24318.85626564 -.00000091  00000+0  70089-4 0  9991
2 37744  51.9909 116.8455 0000649 108.8245  43.6968 12.62272365617744
GLOBALSTAR M084         
1 38040U 11080A   24318.55569369 -.00000058  00000+0  25267-3 0  9999
2 38040  52.0026 344.9353 0000127  24.1515 142.2838 12.62270507595437
GLOBALSTAR M080         
1 38041U 11080B   24318.84720767 -.00000062  00000+0  23224-3 0  9999
2 38041  52.0078 345.5800 0000172 245.9217 285.2918 12.62268460595736
GLOBALSTAR M082         
1 38042U 11080C   24318.70195153 -.00000084  00000+0  10909-3 0  9990
2 38042  52.0082 301.4450 0000918  69.9452 101.1598 12.62269551596280
GLOBALSTAR M092         
1 38043U 11080D   24318.66437569 -.00000090  00000+0  77041-4 0  9994
2 38043  52.0108  31.9226 0000438 101.3307  19.0736 12.62269351594730
GLOBALSTAR M090         
1 38044U 11080E   24318.72826360 -.00000092  00000+0  65084-4 0  9999
2 38044  51.9889 295.4498 0000668  72.5441  98.6392 12.62270599596409
GLOBALSTAR M086         
1 38045U 11080F   24318.67534683 -.00000085  00000+0  10211-3 0  9991
2 38045  51.9903 296.1448 0000612 176.9294 354.2165 12.62270059596347
GLOBALSTAR M097         
1 39072U 13005A   24318.98124015 -.00000067  00000+0  20733-3 0  9999
2 39072  52.0037 209.5439 0000957  88.2260 271.8716 12.62267220543711
GLOBALSTAR M093         
1 39073U 13005B   24318.79611615 -.00000071  00000+0  18115-3 0  9992
2 39073  51.9798 203.7528 0001118  89.4596 270.6398 12.62267536543560
GLOBALSTAR M094         
1 39074U 13005C   24318.79618684 -.00000089  00000+0  83743-4 0  9995
2 39074  51.9938 117.9169 0001157 113.5986 246.5003 12.62265410545172
GLOBALSTAR M096         
1 39075U 13005D   24318.73017622 -.00000059  00000+0  25092-3 0  9994
2 39075  52.0049 166.4665 0001265  97.3641 262.7369 12.62264758544083
GLOBALSTAR M078         
1 39076U 13005E   24318.54494910  .00000000  00000+0  57978-3 0  9996
2 39076  51.9871 251.8298 0001638  65.3613 294.7424 12.62267780542683
GLOBALSTAR M095         
1 39077U 13005F   24318.96774244 -.00000084  00000+0  11077-3 0  9997
2 39077  51.9798 247.8492 0001293  78.6167 281.4844 12.62267920542956
GLOBALSTAR M087         
1 52888U 22064A   24318.56202407 -.00000075  00000+0  10612-3 0  9994
2 52888  51.9781  47.5777 0034867 334.4381  25.4791 13.30669480117518
